OBJECT_NAME,OBJECT_ID,EPOCH,MEAN_MOTION,ECCENTRICITY,INCLINATION,RA_OF_ASC_NODE,ARG_OF_PERICENTER,MEAN_ANOMALY,EPHEMERIS_TYPE,CLASSIFICATION_TYPE,NORAD_CAT_ID,ELEMENT_SET_NO,REV_AT_EPOCH,BSTAR,MEAN_MOTION_DOT,MEAN_MOTION_DDOT
STARLINK-5912,2023-042AL,2023-05-28T22:00:00.999936,15.36961772,.0001361,42.9986,165.5810,271.9471,167.5296,0,U,56020,999,130,-.25157E-1,-.857507E-2,0
STARLINK-5907,2023-042AM,2023-05-28T22:00:00.999936,15.36716734,.0001387,42.9984,165.5965,264.1869,169.0092,0,U,56021,999,130,-.25306E-1,-.855871E-2,0
STARLINK-5783,2023-042AN,2023-05-28T22:00:00.999936,15.38291285,.0001312,42.9986,165.5018,272.7651,199.4172,0,U,56022,999,130,-.24181E-1,-.86063E-2,0
STARLINK-5771,2023-042AP,2023-05-28T22:00:00.999936,15.37623970,.0001342,42.9985,165.5404,271.3639,184.8311,0,U,56023,999,130,-.24642E-1,-.85825E-2,0
STARLINK-5772,2023-042AQ,2023-05-28T22:00:00.999936,15.38922373,.0001313,42.9983,165.4670,273.5692,213.1578,0,U,56024,999,130,-.23655E-1,-.859674E-2,0
STARLINK-5766,2023-042AR,2023-05-28T22:00:00.999936,15.37818357,.0001316,42.9986,165.5290,271.5800,189.4349,0,U,56025,999,130,-.24576E-1,-.861172E-2,0
STARLINK-5770,2023-042AS,2023-05-28T22:00:00.999936,15.38516765,.0001284,42.9983,165.4899,269.7056,207.6577,0,U,56026,999,130,-.24094E-1,-.863663E-2,0
STARLINK-5777,2023-042AT,2023-05-28T22:00:00.999936,15.38068739,.0001334,42.9985,165.5146,271.9240,195.0388,0,U,56027,999,130,-.24284E-1,-.858203E-2,0
STARLINK-5779,2023-042AU,2023-05-28T22:00:00.999936,15.39394195,.000129,42.9986,165.4418,268.3727,228.5058,0,U,56028,999,130,-.23345E-1,-.861586E-2,0
STARLINK-5774,2023-042AV,2023-05-28T22:00:00.999936,15.38725744,.0001316,42.9985,165.4774,265.8064,216.4178,0,U,56029,999,130,-.23806E-1,-.859576E-2,0
STARLINK-5781,2023-042AW,2023-05-28T22:00:00.999936,15.39590922,.0001329,42.9985,165.4315,266.6661,234.4980,0,U,56030,999,130,-.2317E-1,-.860792E-2,0
STARLINK-5785,2023-042AX,2023-05-29T03:40:33.468096,15.40258844,.0001175,42.9974,164.1048,325.5257,34.5523,0,U,56031,999,1060,-.59271E-2,-.236866E-2,0
STARLINK-5786,2023-042AY,2023-05-28T22:00:00.999936,15.40248675,.0001313,42.9991,165.3984,265.4126,249.1866,0,U,56032,999,130,-.22677E-1,-.86107E-2,0
STARLINK-5784,2023-042AZ,2023-05-28T22:00:00.999936,15.40051693,.0001337,42.9991,165.4081,264.2943,246.2848,0,U,56033,999,130,-.22805E-1,-.860336E-2,0
STARLINK-5782,2023-042BA,2023-05-28T22:00:00.999936,15.40498194,.0001323,42.9990,165.3871,260.8783,258.4914,0,U,56034,999,130,-.22493E-1,-.861208E-2,0
STARLINK-5792,2023-042BB,2023-05-28T22:00:00.999936,15.39806647,.0001375,42.9987,165.4211,264.2882,241.3819,0,U,56035,999,130,-.22982E-1,-.860014E-2,0
STARLINK-5790,2023-042BC,2023-05-28T22:00:00.999936,15.40645879,.0001331,42.9989,165.3778,265.6995,257.6210,0,U,56036,999,130,-.2239E-1,-.86148E-2,0
STARLINK-5758,2023-042BD,2023-05-29T02:20:48.896160,15.71330087,.0002017,42.9998,159.2412,245.9065,114.1591,0,U,56037,999,1065,-.30864E-4,-.4493E-4,0
STARLINK-5793,2023-042BE,2023-05-28T22:00:00.999936,15.40593254,.0001328,42.9988,165.3819,260.4419,261.2399,0,U,56038,999,130,-.22417E-1,-.86104E-2,0
STARLINK-5795,2023-042BF,2023-05-29T02:20:40.139520,15.71333728,.00019,43.0012,159.2429,263.4677,96.5975,0,U,56039,999,1065,-.72065E-5,-.1396E-4,0
STARLINK-5798,2023-042BG,2023-05-29T00:48:58.458816,15.71337510,.0001674,42.9988,159.6256,247.6582,112.4108,0,U,56040,999,1064,-.24259E-4,-.3629E-4,0
STARLINK-5800,2023-042BH,2023-05-29T02:20:24.850176,15.71208011,.000404,42.9988,159.2398,285.4385,74.6036,0,U,56041,999,1065,-.3245E-3,-.42546E-3,0
ONEWEB-0537,2023-043A,2023-05-28T22:12:07.467552,14.88432417,.0006163,86.8946,118.7483,85.9708,274.2223,0,U,56046,999,1054,.1214E-3,.1153E-4,0
ONEWEB-0538,2023-043B,2023-05-29T04:26:36.212640,14.88463603,.0005254,86.8990,118.6640,96.2481,263.9344,0,U,56047,999,1058,.57765E-3,.5387E-4,0
ONEWEB-0546,2023-043C,2023-05-28T21:18:37.412064,14.88422106,.0001021,86.8924,118.7779,69.7608,290.3728,0,U,56048,999,963,.24628E-3,.2309E-4,0
ONEWEB-0547,2023-043D,2023-05-28T21:53:54.194784,14.88444411,.0005412,86.9913,119.1598,90.1393,270.0454,0,U,56049,999,963,.26828E-3,.2515E-4,0
ONEWEB-0548,2023-043E,2023-05-28T20:58:48.035712,14.88363132,.0001694,86.9005,118.7930,88.8938,271.2482,0,U,56050,999,962,.25667E-3,.2402E-4,0
ONEWEB-0549,2023-043F,2023-05-28T21:56:24.984384,14.88450421,.0005478,86.9942,119.1709,86.2164,273.9689,0,U,56051,999,963,.2654E-3,.2488E-4,0
ONEWEB-0550,2023-043G,2023-05-28T22:37:24.801888,14.88435764,.0005185,86.9919,119.1587,71.4235,288.7555,0,U,56052,999,1054,.41441E-3,.3869E-4,0
ONEWEB-0551,2023-043H,2023-05-29T04:33:45.454752,14.05736792,.0015657,87.7331,122.1074,66.9405,293.3425,0,U,56053,999,1050,-.2758E+0,-.4314E-2,0
