STARLINK-5912           
1 56020U 23042AL  23148.91667824 -.00857507  00000+0 -25157-1 0  9999
2 56020  42.9986 165.5810 0001361 271.9471 167.5296 15.36961772  1308
STARLINK-5907           
1 56021U 23042AM  23148.91667824 -.00855871  00000+0 -25306-1 0  9998
2 56021  42.9984 165.5965 0001387 264.1869 169.0092 15.36716734  1308
STARLINK-5783           
1 56022U 23042AN  23148.91667824 -.00860630  00000+0 -24181-1 0  9998
2 56022  42.9986 165.5018 0001312 272.7651 199.4172 15.38291285  1309
STARLINK-5771           
1 56023U 23042AP  23148.91667824 -.00858250  00000+0 -24642-1 0  9996
2 56023  42.9985 165.5404 0001342 271.3639 184.8311 15.37623970  1304
STARLINK-5772           
1 56024U 23042AQ  23148.91667824 -.00859674  00000+0 -23655-1 0  9991
2 56024  42.9983 165.4670 0001313 273.5692 213.1578 15.38922373  1309
STARLINK-5766           
1 56025U 23042AR  23148.91667824 -.00861172  00000+0 -24576-1 0  9991
2 56025  42.9986 165.5290 0001316 271.5800 189.4349 15.37818357  1300
STARLINK-5770           
1 56026U 23042AS  23148.91667824 -.00863663  00000+0 -24094-1 0  9994
2 56026  42.9983 165.4899 0001284 269.7056 207.6577 15.38516765  1303
STARLINK-5777           
1 56027U 23042AT  23148.91667824 -.00858203  00000+0 -24284-1 0  9990
2 56027  42.9985 165.5146 0001334 271.9240 195.0388 15.38068739  1301
STARLINK-5779           
1 56028U 23042AU  23148.91667824 -.00861586  00000+0 -23345-1 0  9996
2 56028  42.9986 165.4418 0001290 268.3727 228.5058 15.39394195  1300
STARLINK-5774           
1 56029U 23042AV  23148.91667824 -.00859576  00000+0 -23806-1 0  9995
2 56029  42.9985 165.4774 0001316 265.8064 216.4178 15.38725744  1306
STARLINK-5781           
1 56030U 23042AW  23148.91667824 -.00860792  00000+0 -23170-1 0  9993
2 56030  42.9985 165.4315 0001329 266.6661 234.4980 15.39590922  1305
STARLINK-5785           
1 56031U 23042AX  23149.15316514 -.00236866  00000+0 -59271-2 0  9999
2 56031  42.9974 164.1048 0001175 325.5257  34.5523 15.40258844 10609
STARLINK-5786           
1 56032U 23042AY  23148.91667824 -.00861070  00000+0 -22677-1 0  9996
2 56032  42.9991 165.3984 0001313 265.4126 249.1866 15.40248675  1304
STARLINK-5784           
1 56033U 23042AZ  23148.91667824 -.00860336  00000+0 -22805-1 0  9994
2 56033  42.9991 165.4081 0001337 264.2943 246.2848 15.40051693  1304
STARLINK-5782           
1 56034U 23042BA  23148.91667824 -.00861208  00000+0 -22493-1 0  9997
2 56034  42.9990 165.3871 0001323 260.8783 258.4914 15.40498194  1309
STARLINK-5792           
1 56035U 23042BB  23148.91667824 -.00860014  00000+0 -22982-1 0  9995
2 56035  42.9987 165.4211 0001375 264.2882 241.3819 15.39806647  1309
STARLINK-5790           
1 56036U 23042BC  23148.91667824 -.00861480  00000+0 -22390-1 0  9997
2 56036  42.9989 165.3778 0001331 265.6995 257.6210 15.40645879  1306
STARLINK-5758           
1 56037U 23042BD  23149.09778815 -.00004493  00000+0 -30864-4 0  9992
2 56037  42.9998 159.2412 0002017 245.9065 114.1591 15.71330087 10658
STARLINK-5793           
1 56038U 23042BE  23148.91667824 -.00861040  00000+0 -22417-1 0  9991
2 56038  42.9988 165.3819 0001328 260.4419 261.2399 15.40593254  1301
STARLINK-5795           
1 56039U 23042BF  23149.09768680 -.00001396  00000+0 -72065-5 0  9992
2 56039  43.0012 159.2429 0001900 263.4677  96.5975 15.71333728 10655
STARLINK-5798           
1 56040U 23042BG  23149.03400994 -.00003629  00000+0 -24259-4 0  9991
2 56040  42.9988 159.6256 0001674 247.6582 112.4108 15.71337510 10644
STARLINK-5800           
1 56041U 23042BH  23149.09750984 -.00042546  00000+0 -32450-3 0  9997
2 56041  42.9988 159.2398 0004040 285.4385  74.6036 15.71208011 10652
ONEWEB-0537             
1 56046U 23043A   23148.92508643  .00001153  00000+0  12140-3 0  9998
2 56046  86.8946 118.7483 0006163  85.9708 274.2223 14.88432417 10543
ONEWEB-0538             
1 56047U 23043B   23149.18514135  .00005387  00000+0  57765-3 0  9996
2 56047  86.8990 118.6640 0005254  96.2481 263.9344 14.88463603 10584
ONEWEB-0546             
1 56048U 23043C   23148.88793301  .00002309  00000+0  24628-3 0  9990
2 56048  86.8924 118.7779 0001021  69.7608 290.3728 14.88422106  9637
ONEWEB-0547             
1 56049U 23043D   23148.91243281  .00002515  00000+0  26828-3 0  9995
2 56049  86.9913 119.1598 0005412  90.1393 270.0454 14.88444411  9632
ONEWEB-0548             
1 56050U 23043E   23148.87416708  .00002402  00000+0  25667-3 0  9993
2 56050  86.9005 118.7930 0001694  88.8938 271.2482 14.88363132  9621
ONEWEB-0549             
1 56051U 23043F   23148.91417806  .00002488  00000+0  26540-3 0  9994
2 56051  86.9942 119.1709 0005478  86.2164 273.9689 14.88450421  9635
ONEWEB-0550             
1 56052U 23043G   23148.94264817  .00003869  00000+0  41441-3 0  9991
2 56052  86.9919 119.1587 0005185  71.4235 288.7555 14.88435764 10545
ONEWEB-0551             
1 56053U 23043H   23149.19010943 -.00431400  00000+0 -27580+0 0  9991
2 56053  87.7331 122.1074 0015657  66.9405 293.3425 14.05736792 10509
